OBJECT C                
1 57582U 23117C   24286.16780298  .00019544  00000+0  92953-3 0  9997
2 57582  97.4751 356.7890 0009104 242.3126 117.7185 15.19187148 64920
